SKYSAT-A                
1 39418U 13066C   26064.13629825  .00004408  00000+0  25699-3 0  9994
2 39418  97.3960 116.8210 0020428 317.3845  42.5800 15.12313618672754
SKYSAT-B                
1 40072U 14037D   26064.29052428  .00002774  00000+0  31110-3 0  9996
2 40072  98.3726  17.4300 0004210 252.1145 107.9611 14.87705494630511
SKYSAT-C1               
1 41601U 16040C   26064.20122341  .00011250  00000+0  33970-3 0  9999
2 41601  96.9704 101.6161 0003862  62.5480 297.6157 15.34401403541911
SKYSAT-C4               
1 41771U 16058B   26064.31676656  .00019100  00000+0  40380-3 0  9996
2 41771  96.9290  90.6188 0000822  94.1150 266.0194 15.45191491529410
SKYSAT-C5               
1 41772U 16058C   26064.06439818  .00011599  00000+0  35264-3 0  9995
2 41772  97.0619 109.3284 0001850  85.5014 274.6442 15.34184546527788
SKYSAT-C2               
1 41773U 16058D   26064.15877378  .00015795  00000+0  40317-3 0  9990
2 41773  97.0281  90.2891 0005234  78.1719 282.0115 15.39556265529032
SKYSAT-C3               
1 41774U 16058E   26064.09834393  .00024193  00000+0  46257-3 0  9995
2 41774  96.9179  99.1649 0001561 102.9453 257.1974 15.48077211529985
SKYSAT-C11              
1 42987U 17068A   26064.33305964  .00033536  00000+0  55626-3 0  9999
2 42987  97.4196 209.1745 0000738  86.8754 273.2583 15.52065750467106
SKYSAT-C10              
1 42988U 17068B   26064.09621722  .00013746  00000+0  43958-3 0  9992
2 42988  97.4332 200.1868 0001134  90.7177 269.4195 15.32545551466408
SKYSAT-C9               
1 42989U 17068C   26064.09608895  .00018810  00000+0  49259-3 0  9996
2 42989  97.4257 200.1847 0009716 147.8994 212.2845 15.38708919466736
SKYSAT-C8               
1 42990U 17068D   26063.82603329  .00007418  00000+0  22360-3 0  9991
2 42990  97.4337 199.3361 0001326  99.1187 261.0206 15.34611478466292
SKYSAT-C7               
1 42991U 17068E   26064.33761509  .00015853  00000+0  47473-3 0  9998
2 42991  97.4359 200.8353 0007379 116.7846 243.4153 15.34581892466435
SKYSAT-C6               
1 42992U 17068F   26064.32770413  .00014627  00000+0  46642-3 0  9997
2 42992  97.4397 201.1231 0003597 122.1784 237.9807 15.32619000466409
SKYSAT-C12              
1 43797U 18099AR  26064.03208825  .00020862  00000+0  43745-3 0  9996
2 43797  96.9377  91.6466 0005062 150.3449 209.8089 15.45403907405759
SKYSAT-C13              
1 43802U 18099AW  26064.09411094  .00090064  00000+0  58277-3 0  9990
2 43802  96.9409 111.7216 0003505 215.6683 144.4350 15.75793388406444
FLOCK 4Q-16             
1 58271U 23174R   26064.22081314  .00032698  00000+0  70451-3 0  9996
2 58271  97.3869 150.2752 0007906 172.0966 188.0408 15.44502154129509
