[{"OBJECT_NAME":"SKYSAT-A","OBJECT_ID":"2013-066C","EPOCH":"2026-03-05T03:16:16.168800","MEAN_MOTION":15.12313618,"ECCENTRICITY":0.00204288,"INCLINATION":97.396,"RA_OF_ASC_NODE":116.821,"ARG_OF_PERICENTER":317.3845,"MEAN_ANOMALY":42.58,"EPHEMERIS_TYPE":0,"CLASSIFICATION_TYPE":"U","NORAD_CAT_ID":39418,"ELEMENT_SET_NO":999,"REV_AT_EPOCH":67275,"BSTAR":0.00025698818,"MEAN_MOTION_DOT":4.408e-5,"MEAN_MOTION_DDOT":0},{"OBJECT_NAME":"SKYSAT-B","OBJECT_ID":"2014-037D","EPOCH":"2026-03-05T06:58:21.297792","MEAN_MOTION":14.87705494,"ECCENTRICITY":0.00042102,"INCLINATION":98.3726,"RA_OF_ASC_NODE":17.43,"ARG_OF_PERICENTER":252.1145,"MEAN_ANOMALY":107.9611,"EPHEMERIS_TYPE":0,"CLASSIFICATION_TYPE":"U","NORAD_CAT_ID":40072,"ELEMENT_SET_NO":999,"REV_AT_EPOCH":63051,"BSTAR":0.00031109899,"MEAN_MOTION_DOT":2.774e-5,"MEAN_MOTION_DDOT":0},{"OBJECT_NAME":"SKYSAT-C1","OBJECT_ID":"2016-040C","EPOCH":"2026-03-05T04:49:45.702624","MEAN_MOTION":15.34401403,"ECCENTRICITY":0.0003862,"INCLINATION":96.9704,"RA_OF_ASC_NODE":101.6161,"ARG_OF_PERICENTER":62.548,"MEAN_ANOMALY":297.6157,"EPHEMERIS_TYPE":0,"CLASSIFICATION_TYPE":"U","NORAD_CAT_ID":41601,"ELEMENT_SET_NO":999,"REV_AT_EPOCH":54191,"BSTAR":0.00033969906,"MEAN_MOTION_DOT":0.0001125,"MEAN_MOTION_DDOT":0},{"OBJECT_NAME":"SKYSAT-C4","OBJECT_ID":"2016-058B","EPOCH":"2026-03-05T07:36:08.630784","MEAN_MOTION":15.45191491,"ECCENTRICITY":8.226e-5,"INCLINATION":96.929,"RA_OF_ASC_NODE":90.6188,"ARG_OF_PERICENTER":94.115,"MEAN_ANOMALY":266.0194,"EPHEMERIS_TYPE":0,"CLASSIFICATION_TYPE":"U","NORAD_CAT_ID":41771,"ELEMENT_SET_NO":999,"REV_AT_EPOCH":52941,"BSTAR":0.00040380355,"MEAN_MOTION_DOT":0.000191,"MEAN_MOTION_DDOT":0},{"OBJECT_NAME":"SKYSAT-C5","OBJECT_ID":"2016-058C","EPOCH":"2026-03-05T01:32:44.002752","MEAN_MOTION":15.34184546,"ECCENTRICITY":0.00018509,"INCLINATION":97.0619,"RA_OF_ASC_NODE":109.3284,"ARG_OF_PERICENTER":85.5014,"MEAN_ANOMALY":274.6442,"EPHEMERIS_TYPE":0,"CLASSIFICATION_TYPE":"U","NORAD_CAT_ID":41772,"ELEMENT_SET_NO":999,"REV_AT_EPOCH":52778,"BSTAR":0.00035263944,"MEAN_MOTION_DOT":0.00011599,"MEAN_MOTION_DDOT":0},{"OBJECT_NAME":"SKYSAT-C2","OBJECT_ID":"2016-058D","EPOCH":"2026-03-05T03:48:38.054592","MEAN_MOTION":15.39556265,"ECCENTRICITY":0.00052348,"INCLINATION":97.0281,"RA_OF_ASC_NODE":90.2891,"ARG_OF_PERICENTER":78.1719,"MEAN_ANOMALY":282.0115,"EPHEMERIS_TYPE":0,"CLASSIFICATION_TYPE":"U","NORAD_CAT_ID":41773,"ELEMENT_SET_NO":999,"REV_AT_EPOCH":52903,"BSTAR":0.00040316752,"MEAN_MOTION_DOT":0.00015795,"MEAN_MOTION_DDOT":0},{"OBJECT_NAME":"SKYSAT-C3","OBJECT_ID":"2016-058E","EPOCH":"2026-03-05T02:21:36.915552","MEAN_MOTION":15.48077211,"ECCENTRICITY":0.00015619,"INCLINATION":96.9179,"RA_OF_ASC_NODE":99.1649,"ARG_OF_PERICENTER":102.9453,"MEAN_ANOMALY":257.1974,"EPHEMERIS_TYPE":0,"CLASSIFICATION_TYPE":"U","NORAD_CAT_ID":41774,"ELEMENT_SET_NO":999,"REV_AT_EPOCH":52998,"BSTAR":0.00046257425,"MEAN_MOTION_DOT":0.00024193,"MEAN_MOTION_DDOT":0},{"OBJECT_NAME":"SKYSAT-C11","OBJECT_ID":"2017-068A","EPOCH":"2026-03-05T07:59:36.352896","MEAN_MOTION":15.5206575,"ECCENTRICITY":7.383e-5,"INCLINATION":97.4196,"RA_OF_ASC_NODE":209.1745,"ARG_OF_PERICENTER":86.8754,"MEAN_ANOMALY":273.2583,"EPHEMERIS_TYPE":0,"CLASSIFICATION_TYPE":"U","NORAD_CAT_ID":42987,"ELEMENT_SET_NO":999,"REV_AT_EPOCH":46710,"BSTAR":0.00055626176,"MEAN_MOTION_DOT":0.00033536,"MEAN_MOTION_DDOT":0},{"OBJECT_NAME":"SKYSAT-C10","OBJECT_ID":"2017-068B","EPOCH":"2026-03-05T02:18:33.167808","MEAN_MOTION":15.32545551,"ECCENTRICITY":0.00011345,"INCLINATION":97.4332,"RA_OF_ASC_NODE":200.1868,"ARG_OF_PERICENTER":90.7177,"MEAN_ANOMALY":269.4195,"EPHEMERIS_TYPE":0,"CLASSIFICATION_TYPE":"U","NORAD_CAT_ID":42988,"ELEMENT_SET_NO":999,"REV_AT_EPOCH":46640,"BSTAR":0.00043958412,"MEAN_MOTION_DOT":0.00013746,"MEAN_MOTION_DDOT":0},{"OBJECT_NAME":"SKYSAT-C9","OBJECT_ID":"2017-068C","EPOCH":"2026-03-05T02:18:22.085280","MEAN_MOTION":15.38708919,"ECCENTRICITY":0.00097169,"INCLINATION":97.4257,"RA_OF_ASC_NODE":200.1847,"ARG_OF_PERICENTER":147.8994,"MEAN_ANOMALY":212.2845,"EPHEMERIS_TYPE":0,"CLASSIFICATION_TYPE":"U","NORAD_CAT_ID":42989,"ELEMENT_SET_NO":999,"REV_AT_EPOCH":46673,"BSTAR":0.00049259401,"MEAN_MOTION_DOT":0.0001881,"MEAN_MOTION_DDOT":0},{"OBJECT_NAME":"SKYSAT-C8","OBJECT_ID":"2017-068D","EPOCH":"2026-03-04T19:49:29.276256","MEAN_MOTION":15.34611478,"ECCENTRICITY":0.00013261,"INCLINATION":97.4337,"RA_OF_ASC_NODE":199.3361,"ARG_OF_PERICENTER":99.1187,"MEAN_ANOMALY":261.0206,"EPHEMERIS_TYPE":0,"CLASSIFICATION_TYPE":"U","NORAD_CAT_ID":42990,"ELEMENT_SET_NO":999,"REV_AT_EPOCH":46629,"BSTAR":0.00022359988,"MEAN_MOTION_DOT":7.418e-5,"MEAN_MOTION_DDOT":0},{"OBJECT_NAME":"SKYSAT-C7","OBJECT_ID":"2017-068E","EPOCH":"2026-03-05T08:06:09.943776","MEAN_MOTION":15.34581892,"ECCENTRICITY":0.00073799,"INCLINATION":97.4359,"RA_OF_ASC_NODE":200.8353,"ARG_OF_PERICENTER":116.7846,"MEAN_ANOMALY":243.4153,"EPHEMERIS_TYPE":0,"CLASSIFICATION_TYPE":"U","NORAD_CAT_ID":42991,"ELEMENT_SET_NO":999,"REV_AT_EPOCH":46643,"BSTAR":0.00047473238,"MEAN_MOTION_DOT":0.00015853,"MEAN_MOTION_DDOT":0},{"OBJECT_NAME":"SKYSAT-C6","OBJECT_ID":"2017-068F","EPOCH":"2026-03-05T07:51:53.636832","MEAN_MOTION":15.32619,"ECCENTRICITY":0.00035979,"INCLINATION":97.4397,"RA_OF_ASC_NODE":201.1231,"ARG_OF_PERICENTER":122.1784,"MEAN_ANOMALY":237.9807,"EPHEMERIS_TYPE":0,"CLASSIFICATION_TYPE":"U","NORAD_CAT_ID":42992,"ELEMENT_SET_NO":999,"REV_AT_EPOCH":46640,"BSTAR":0.00046641919,"MEAN_MOTION_DOT":0.00014627,"MEAN_MOTION_DDOT":0},{"OBJECT_NAME":"SKYSAT-C12","OBJECT_ID":"2018-099AR","EPOCH":"2026-03-05T00:46:12.424800","MEAN_MOTION":15.45403907,"ECCENTRICITY":0.00050623,"INCLINATION":96.9377,"RA_OF_ASC_NODE":91.6466,"ARG_OF_PERICENTER":150.3449,"MEAN_ANOMALY":209.8089,"EPHEMERIS_TYPE":0,"CLASSIFICATION_TYPE":"U","NORAD_CAT_ID":43797,"ELEMENT_SET_NO":999,"REV_AT_EPOCH":40575,"BSTAR":0.00043744588,"MEAN_MOTION_DOT":0.00020862,"MEAN_MOTION_DDOT":0},{"OBJECT_NAME":"SKYSAT-C13","OBJECT_ID":"2018-099AW","EPOCH":"2026-03-05T02:15:31.185216","MEAN_MOTION":15.75793388,"ECCENTRICITY":0.00035054,"INCLINATION":96.9409,"RA_OF_ASC_NODE":111.7216,"ARG_OF_PERICENTER":215.6683,"MEAN_ANOMALY":144.435,"EPHEMERIS_TYPE":0,"CLASSIFICATION_TYPE":"U","NORAD_CAT_ID":43802,"ELEMENT_SET_NO":999,"REV_AT_EPOCH":40644,"BSTAR":0.00058277237,"MEAN_MOTION_DOT":0.00090064,"MEAN_MOTION_DDOT":0},{"OBJECT_NAME":"FLOCK 4Q-16","OBJECT_ID":"2023-174R","EPOCH":"2026-03-05T05:17:58.255296","MEAN_MOTION":15.44502154,"ECCENTRICITY":0.00079063,"INCLINATION":97.3869,"RA_OF_ASC_NODE":150.2752,"ARG_OF_PERICENTER":172.0966,"MEAN_ANOMALY":188.0408,"EPHEMERIS_TYPE":0,"CLASSIFICATION_TYPE":"U","NORAD_CAT_ID":58271,"ELEMENT_SET_NO":999,"REV_AT_EPOCH":12950,"BSTAR":0.0007045081,"MEAN_MOTION_DOT":0.00032698,"MEAN_MOTION_DDOT":0}]
